{"type": "FeatureCollection", "features": [ {"type": "Feature", "properties": {"norad_id": 33153, "name": "INTELSAT 25 (IS-25)", "group": "intelsat", "lat": 2.1858940191529426, "lon": 159.7961377362162, "alt_km": 35791.92490717175, "timestamp": "2025-12-17T07:00:46.559432+00:00", "meta": {"OBJECT_NAME": "INTELSAT 25 (IS-25)", "OBJECT_ID": "2008-034A", "EPOCH": "2025-12-16T22:03:05.126112", "MEAN_MOTION": 1.00271082, "ECCENTRICITY": 0.00048335, "INCLINATION": 2.238, "RA_OF_ASC_NODE": 82.6054, "ARG_OF_PERICENTER": 184.0182, "MEAN_ANOMALY": 118.4537, "EPHEMERIS_TYPE": 0, "CLASSIFICATION_TYPE": "U", "NORAD_CAT_ID": 33153, "ELEMENT_SET_NO": 999, "REV_AT_EPOCH": 6386, "BSTAR": 0, "MEAN_MOTION_DOT": -2.01e-06, "MEAN_MOTION_DDOT": 0}, "tle": {"line1": "1 33153U 08034A   25350.91880933 -.00000201  00000+0  00000+0 0  9998", "line2": "2 33153   2.2380  82.6054 0004833 184.0182 118.4537  1.00271082 63862"}}, "geometry": {"type": "Point", "coordinates": [159.7961377362162, 2.1858940191529426]}}, {"type": "Feature", "properties": {"norad_id": 33376, "name": "GALAXY 19 (G-19)", "group": "intelsat", "lat": 0.018081251303284984, "lon": 94.34970928084554, "alt_km": 35796.96332721636, "timestamp": "2025-12-17T07:00:46.559445+00:00", "meta": {"OBJECT_NAME": "GALAXY 19 (G-19)", "OBJECT_ID": "2008-045A", "EPOCH": "2025-12-16T16:18:59.063328", "MEAN_MOTION": 1.00271105, "ECCENTRICITY": 0.00025365, "INCLINATION": 0.0245, "RA_OF_ASC_NODE": 279.7518, "ARG_OF_PERICENTER": 347.9826, "MEAN_ANOMALY": 325.5808, "EPHEMERIS_TYPE": 0, "CLASSIFICATION_TYPE": "U", "NORAD_CAT_ID": 33376, "ELEMENT_SET_NO": 999, "REV_AT_EPOCH": 6307, "BSTAR": 0, "MEAN_MOTION_DOT": -1.15e-06, "MEAN_MOTION_DDOT": 0}, "tle": {"line1": "1 33376U 08045A   25350.67985027 -.00000115  00000+0  00000+0 0  9994", "line2": "2 33376   0.0245 279.7518 0002536 347.9826 325.5808  1.00271105 63073"}}, "geometry": {"type": "Point", "coordinates": [94.34970928084554, 0.018081251303284984]}}, {"type": "Feature", "properties": {"norad_id": 35493, "name": "FM-5", "group": "intelsat", "lat": 0.015627549307829988, "lon": 105.20293801811597, "alt_km": 35783.87084080101, "timestamp": "2025-12-17T07:00:46.559478+00:00", "meta": {"OBJECT_NAME": "FM-5", "OBJECT_ID": "2009-034A", "EPOCH": "2025-12-16T14:39:37.350144", "MEAN_MOTION": 1.00270597, "ECCENTRICITY": 8.841e-05, "INCLINATION": 0.0221, "RA_OF_ASC_NODE": 289.5649, "ARG_OF_PERICENTER": 221.602, "MEAN_ANOMALY": 68.0984, "EPHEMERIS_TYPE": 0, "CLASSIFICATION_TYPE": "U", "NORAD_CAT_ID": 35493, "ELEMENT_SET_NO": 999, "REV_AT_EPOCH": 4481, "BSTAR": 0, "MEAN_MOTION_DOT": -1.76e-06, "MEAN_MOTION_DDOT": 0}, "tle": {"line1": "1 35493U 09034A   25350.61084896 -.00000176  00000+0  00000+0 0  9990", "line2": "2 35493   0.0221 289.5649 0000884 221.6020  68.0984  1.00270597 44810"}}, "geometry": {"type": "Point", "coordinates": [105.20293801811597, 0.015627549307829988]}}, {"type": "Feature", "properties": {"norad_id": 36097, "name": "INTELSAT 14 (IS-14)", "group": "intelsat", "lat": -0.0005672080865332145, "lon": 146.34240899180142, "alt_km": 35792.38109889853, "timestamp": "2025-12-17T07:00:46.559508+00:00", "meta": {"OBJECT_NAME": "INTELSAT 14 (IS-14)", "OBJECT_ID": "2009-064A", "EPOCH": "2025-12-16T16:34:05.116800", "MEAN_MOTION": 1.00272436, "ECCENTRICITY": 0.00024568, "INCLINATION": 0.0142, "RA_OF_ASC_NODE": 314.6484, "ARG_OF_PERICENTER": 319.9167, "MEAN_ANOMALY": 14.5445, "EPHEMERIS_TYPE": 0, "CLASSIFICATION_TYPE": "U", "NORAD_CAT_ID": 36097, "ELEMENT_SET_NO": 999, "REV_AT_EPOCH": 5877, "BSTAR": 0, "MEAN_MOTION_DOT": -2.49e-06, "MEAN_MOTION_DDOT": 0}, "tle": {"line1": "1 36097U 09064A   25350.69033700 -.00000249  00000+0  00000+0 0  9991", "line2": "2 36097   0.0142 314.6484 0002456 319.9167  14.5445  1.00272436 58772"}}, "geometry": {"type": "Point", "coordinates": [146.34240899180142, -0.0005672080865332145]}}, {"type": "Feature", "properties": {"norad_id": 36106, "name": "INTELSAT 15 (IS-15)", "group": "intelsat", "lat": -0.03526640197769823, "lon": -83.49177314158449, "alt_km": 35776.9106788261, "timestamp": "2025-12-17T07:00:46.559524+00:00", "meta": {"OBJECT_NAME": "INTELSAT 15 (IS-15)", "OBJECT_ID": "2009-067A", "EPOCH": "2025-12-16T18:53:51.733248", "MEAN_MOTION": 1.00271772, "ECCENTRICITY": 0.00021753, "INCLINATION": 0.0165, "RA_OF_ASC_NODE": 331.1798, "ARG_OF_PERICENTER": 305.1758, "MEAN_ANOMALY": 177.9387, "EPHEMERIS_TYPE": 0, "CLASSIFICATION_TYPE": "U", "NORAD_CAT_ID": 36106, "ELEMENT_SET_NO": 999, "REV_AT_EPOCH": 3940, "BSTAR": 0, "MEAN_MOTION_DOT": -1.61e-06, "MEAN_MOTION_DDOT": 0}, "tle": {"line1": "1 36106U 09067A   25350.78740432 -.00000161  00000+0  00000+0 0  9995", "line2": "2 36106   0.0165 331.1798 0002175 305.1758 177.9387  1.00271772 39401"}}, "geometry": {"type": "Point", "coordinates": [-83.49177314158449, -0.03526640197769823]}}, {"type": "Feature", "properties": {"norad_id": 36131, "name": "DIRECTV 12", "group": "intelsat", "lat": 0.01906979208984824, "lon": 88.62290174521911, "alt_km": 35787.696284298756, "timestamp": "2025-12-17T07:00:46.559544+00:00", "meta": {"OBJECT_NAME": "DIRECTV 12", "OBJECT_ID": "2009-075A", "EPOCH": "2025-12-16T16:17:36.693888", "MEAN_MOTION": 1.00265392, "ECCENTRICITY": 7.88e-06, "INCLINATION": 0.0454, "RA_OF_ASC_NODE": 160.5616, "ARG_OF_PERICENTER": 231.7004, "MEAN_ANOMALY": 194.9906, "EPHEMERIS_TYPE": 0, "CLASSIFICATION_TYPE": "U", "NORAD_CAT_ID": 36131, "ELEMENT_SET_NO": 999, "REV_AT_EPOCH": 4472, "BSTAR": 0, "MEAN_MOTION_DOT": -7.9e-07, "MEAN_MOTION_DDOT": 0}, "tle": {"line1": "1 36131U 09075A   25350.67889692 -.00000079  00000+0  00000+0 0  9990", "line2": "2 36131   0.0454 160.5616 0000078 231.7004 194.9906  1.00265392 44729"}}, "geometry": {"type": "Point", "coordinates": [88.62290174521911, 0.01906979208984824]}}, {"type": "Feature", "properties": {"norad_id": 36397, "name": "INTELSAT 16 (IS-16)", "group": "intelsat", "lat": 0.026385904834957927, "lon": 115.1445724923506, "alt_km": 35793.55216702815, "timestamp": "2025-12-17T07:00:46.559557+00:00", "meta": {"OBJECT_NAME": "INTELSAT 16 (IS-16)", "OBJECT_ID": "2010-006A", "EPOCH": "2025-12-16T20:45:50.831424", "MEAN_MOTION": 1.00271042, "ECCENTRICITY": 0.00018878, "INCLINATION": 0.0101, "RA_OF_ASC_NODE": 344.3729, "ARG_OF_PERICENTER": 285.5095, "MEAN_ANOMALY": 51.1317, "EPHEMERIS_TYPE": 0, "CLASSIFICATION_TYPE": "U", "NORAD_CAT_ID": 36397, "ELEMENT_SET_NO": 999, "REV_AT_EPOCH": 5782, "BSTAR": 0, "MEAN_MOTION_DOT": -2.2e-06, "MEAN_MOTION_DDOT": 0}, "tle": {"line1": "1 36397U 10006A   25350.86517166 -.00000220  00000+0  00000+0 0  9993", "line2": "2 36397   0.0101 344.3729 0001887 285.5095  51.1317  1.00271042 57829"}}, "geometry": {"type": "Point", "coordinates": [115.1445724923506, 0.026385904834957927]}}, {"type": "Feature", "properties": {"norad_id": 37185, "name": "XM-5", "group": "intelsat", "lat": 0.03928666125248072, "lon": 76.14053633212428, "alt_km": 35783.44142047207, "timestamp": "2025-12-17T07:00:46.559569+00:00", "meta": {"OBJECT_NAME": "XM-5", "OBJECT_ID": "2010-053A", "EPOCH": "2025-12-16T16:13:59.541312", "MEAN_MOTION": 1.00270347, "ECCENTRICITY": 0.00018771, "INCLINATION": 0.0652, "RA_OF_ASC_NODE": 272.4176, "ARG_OF_PERICENTER": 231.4449, "MEAN_ANOMALY": 70.0101, "EPHEMERIS_TYPE": 0, "CLASSIFICATION_TYPE": "U", "NORAD_CAT_ID": 37185, "ELEMENT_SET_NO": 999, "REV_AT_EPOCH": 5565, "BSTAR": 0, "MEAN_MOTION_DOT": 1e-08, "MEAN_MOTION_DDOT": 0}, "tle": {"line1": "1 37185U 10053A   25350.67638358  .00000001  00000+0  00000+0 0  9993", "line2": "2 37185   0.0652 272.4176 0001877 231.4449  70.0101  1.00270347 55652"}}, "geometry": {"type": "Point", "coordinates": [76.14053633212428, 0.03928666125248072]}}, {"type": "Feature", "properties": {"norad_id": 37238, "name": "INTELSAT 17 (IS-17)", "group": "intelsat", "lat": -0.02437092271309301, "lon": -102.63586615716893, "alt_km": 35773.69480194071, "timestamp": "2025-12-17T07:00:46.559582+00:00", "meta": {"OBJECT_NAME": "INTELSAT 17 (IS-17)", "OBJECT_ID": "2010-065B", "EPOCH": "2025-12-16T19:11:20.375232", "MEAN_MOTION": 1.00275946, "ECCENTRICITY": 0.00026538, "INCLINATION": 0.0095, "RA_OF_ASC_NODE": 298.841, "ARG_OF_PERICENTER": 323.3713, "MEAN_ANOMALY": 177.3143, "EPHEMERIS_TYPE": 0, "CLASSIFICATION_TYPE": "U", "NORAD_CAT_ID": 37238, "ELEMENT_SET_NO": 999, "REV_AT_EPOCH": 5141, "BSTAR": 0, "MEAN_MOTION_DOT": 2.2e-07, "MEAN_MOTION_DDOT": 0}, "tle": {"line1": "1 37238U 10065B   25350.79954138  .00000022  00000+0  00000+0 0  9998", "line2": "2 37238   0.0095 298.8410 0002653 323.3713 177.3143  1.00275946 51410"}}, "geometry": {"type": "Point", "coordinates": [-102.63586615716893, -0.02437092271309301]}}, {"type": "Feature", "properties": {"norad_id": 37392, "name": "INTELSAT 28 (IS-28)", "group": "intelsat", "lat": 1.2899148360761905, "lon": 159.6314100745422, "alt_km": 35791.487564916744, "timestamp": "2025-12-17T07:00:46.559594+00:00", "meta": {"OBJECT_NAME": "INTELSAT 28 (IS-28)", "OBJECT_ID": "2011-016A", "EPOCH": "2025-12-16T16:37:49.757664", "MEAN_MOTION": 1.00270952, "ECCENTRICITY": 0.00037105, "INCLINATION": 1.3345, "RA_OF_ASC_NODE": 85.0101, "ARG_OF_PERICENTER": 184.3932, "MEAN_ANOMALY": 33.9565, "EPHEMERIS_TYPE": 0, "CLASSIFICATION_TYPE": "U", "NORAD_CAT_ID": 37392, "ELEMENT_SET_NO": 999, "REV_AT_EPOCH": 5145, "BSTAR": 0, "MEAN_MOTION_DOT": -2.02e-06, "MEAN_MOTION_DDOT": 0}, "tle": {"line1": "1 37392U 11016A   25350.69293701 -.00000202  00000+0  00000+0 0  9998", "line2": "2 37392   1.3345  85.0101 0003710 184.3932  33.9565  1.00270952 51450"}}, "geometry": {"type": "Point", "coordinates": [159.6314100745422, 1.2899148360761905]}}]}